#dP2023  3  5 12  0  0.00000000      96 __u+U ITR00 EXT  IAC
## 2252  43200.00000000   900.00000000 60008 0.5000000000000
+  118   C06C07C08C09C10C11C12C13C14C16C19C20C21C22C23C24C25
+        C26C27C28C29C30C32C33C34C35C36C37C38C39C40C41C42C43
+        C44C45C46E02E03E04E05E07E08E09E10E11E12E14E15E18E19
+        E21E24E25E26E27E30E31E33E34E36G01G02G03G04G05G06G07
+        G08G09G10G11G12G13G14G15G16G17G18G19G20G21G22G23G24
+        G25G26G27G28G29G30G31G32J02J03J04R01R02R03R04R05R07
+        R08R09R11R12R13R14R15R16R17R18R19R20R21R22R24R25  0
++         0  0  0  0  0  0  0  0  0  0  0  0  0  0  0  0  0
++         0  0  0  0  0  0  0  0  0  0  0  0  0  0  0  0  0
++         0  0  0  0  0  0  0  0  0  0  0  0  0  0  0  0  0
++         0  0  0  0  0  0  0  0  0  0  0  0  0  0  0  0  0
++         0  0  0  0  0  0  0  0  0  0  0  0  0  0  0  0  0
++         0  0  0  0  0  0  0  0  0  0  0  0  0  0  0  0  0
++         0  0  0  0  0  0  0  0  0  0  0  0  0  0  0  0  0
%c M  cc GPS ccc cccc cccc cccc cccc ccccc ccccc ccccc ccccc
%c cc cc ccc ccc cccc cccc cccc cccc ccccc ccccc ccccc ccccc
%f  0.0000000  0.000000000  0.00000000000  0.000000000000000
%f  0.0000000  0.000000000  0.00000000000  0.000000000000000
%i    0    0    0    0      0      0      0      0         0
%i    0    0    0    0      0      0      0      0         0
/* IAC                                ULTRA-RAPID PREDICTION
/* S/V CLOCKS ARE ALIGNED TO GNSS TIME                      
/* G:C1WC2W R:C1PC2P E:C1XC5X C:C2IC6I J:C1CC2S             
/* PCV:IGS20_2247 OL/AL:FES2004  NONE     YN ORB:CoN CLK:CoN
*  2023 03 06 11 30  0.00000000
PC06  -8473.971279  23132.515008 -34206.977353   -194.473725
PC07 -17309.781806  36404.731126  12101.029010     19.772410
PC08  -1300.730081  37596.646665  19227.680172    521.457624
PC09   1480.247661  25556.355416 -33017.044620    922.852526
PC10 -10453.077431  36466.297665  18158.290275     -2.941543
PC11 -23625.369154 -10491.072764 -10430.159203    690.551562
PC12  -6832.903430 -15645.195965 -22036.833324    490.099140
PC13   2685.069036  39875.907945  14000.976973    223.092104
PC14 -13662.321025  -8041.251982  22985.754915    556.553749
PC16 -10631.901426  21732.836621 -34330.947427    145.904424
PC19  18814.944311  -1907.306620 -20497.490902   -895.166749
PC20   7685.497916  15038.153801 -22191.803101    693.232028
PC21   9020.297024 -24219.984510  10578.019111   -909.011815
PC22  19683.328663 -18560.642226  -6895.456190   -599.898816
PC23 -13200.389870  10175.200422 -22385.968814   -884.524848
PC24 -12785.579012 -24632.919191  -2793.650260   -329.347859
PC25 -18799.933224  -8806.713635 -18650.208286     82.971763
PC26  -1246.651322 -24752.945183  12772.317262    -87.944624
PC27  -3153.125903  15616.734293  22891.874847    106.452692
PC28 -20915.186977   8717.332112  16294.065029     77.847961
PC29  27684.962869   3275.864421   1156.128153     89.804618
PC30  16886.384006  13722.011571  17450.445615      0.974032
PC32  -8897.615103  24274.893059 -10466.960760   -606.064345
PC33 -18778.491001   1851.854228  20563.310985   -871.016959
PC34 -18059.824891 -13325.301037 -16613.393913    120.457006
PC35  21402.473998  -8929.472137 -15502.233543    669.368850
PC36  18611.675750   9992.496246  18254.435299   -582.590819
PC37   -384.754213  24230.676067 -13854.158088   -807.736405
PC38  -7516.976165  33020.100300  25243.404214     63.145616
PC39 -17157.760004  19660.825702 -33127.503515     -2.046673
PC40 -24453.997464  32364.330330  11042.126875    -16.797331
PC41 -19821.948995  18146.405827   7566.136757   -689.814156
PC42  -6681.279300 -16134.613118  21820.586461   -801.779366
PC43 -27578.870982  -3898.378991  -1960.414821     10.410912
PC44   2759.576660 -15857.641543 -22807.796362     35.648655
PC45  12869.442233 -10527.199883  22401.896003    -68.660777
PC46  13658.736245  23958.428097   4397.140747    -37.914569
PE02  14983.963936 -18305.284507  17769.395341     24.683216
PE03  24687.408680 -14965.814419   6561.839151   -656.429860
PE04  -8255.201460  19209.035080 -20944.748701    -72.377240
PE05  26978.180795  -1798.198441 -12040.383804    -89.116078
PE07 -13327.919127 -12324.470103  23387.346612    -27.798204
PE08   8460.300027 -19132.183620  20949.047192    -46.625499
PE09  13130.562713  12265.120888 -23519.434775   -859.084546
PE10  12067.537863  22018.435720  15670.103347   -517.075431
PE11  20192.943794  20730.118268   6159.044589   1139.730608
PE12   2662.144773  19893.083108  21748.613527   -447.032319
PE14  25179.100743   3416.558508  11967.853107    160.547463
PE15  -2428.013547 -19712.945473 -21943.461069     -5.546094
PE18 -16406.490963 -12960.765793 -19924.083644   -315.533572
PE19 -26037.144948  13483.774453  -4064.472970  -3076.296019
PE21 -16637.612767  -1943.150377 -24411.703412   -515.908649
PE24   8270.379695  22979.131707  16724.374895  -1149.931546
PE25  16577.343945   2345.522981  24408.156750   -600.749972
PE26 -25194.642175  -9226.397660  12515.028768     37.386565
PE27  -8832.417563 -22292.033986 -17350.371843   -528.030783
PE30   4611.077399 -29224.785814    455.857596  -1294.890494
PE31  -4100.730697  29319.611605    137.003463   -517.796019
PE33 -16192.615762   6841.974105  23824.638992   -450.123834
PE34  16042.510683  -7017.131394 -23867.352580    -33.461015
PE36  25245.484706   9892.339928 -11849.445911    -22.080658
PG01 -21797.474868 -13860.259682   6613.153550    205.591365
PG02  22851.542366   9475.652873  -8709.945081   -616.339639
PG03 -13410.441614  -7321.452451  21616.526123   -354.232259
PG04 -23413.303722  -2011.713784  12495.660227    -13.295078
PG05   6575.941968  21607.561341 -14047.221143   -118.409875
PG06  -3888.824068  15354.380221  21368.867447    578.949972
PG07 -20333.421725  -1921.684629 -16796.362404    228.595279
PG08 -14681.896461  -9596.715592 -20118.181701   -111.632613
PG09 -25416.981334   7336.569309   2558.211252   -205.993359
PG10  11163.751087 -21627.369853 -10075.774894    -27.427326
PG11   8718.240649  21295.418317  13304.927213   -122.298307
PG12  12236.352386  10246.325835  20965.475041   -348.183261
PG13   6579.610469  13955.621328 -21813.223523    486.250766
PG14 -13446.247370  19317.998769 -12170.620893    -11.157048
PG15  16090.867242   8451.428924 -19902.098340     19.126775
PG16  -2311.971084 -23185.763421 -12605.305555   -516.929537
PG17 -20350.981336  13370.728480  11158.590653    703.910637
PG18  17745.682167  -1985.309137 -19706.872745   -167.919692
PG19 -11765.096809  15167.410777  18003.589446    286.357627
PG20   1694.407928  26391.952859  -3433.956741    446.713415
PG21 -21209.163807 -16638.253415  -1206.384209    154.259205
PG22   7739.832420 -16231.602068  19931.656363    439.892149
PG23  14855.122778 -11568.513401 -18668.855167      9.177975
PG24  22229.741805  14820.692595   1611.600859   -100.555301
PG25  15526.969374  -1266.883006  21170.290616    425.456189
PG26   4233.289190 -26002.260321   1105.778936    241.883608
PG27  -2843.522617 -14977.259255 -21963.503012     87.255933
PG28   5537.806053 -14714.503961  21376.329473     35.110987
PG29  25837.660940  -2699.924508   5674.850389   -589.504769
PG30 -11845.902065  10434.182739 -21272.991367   -527.982726
PG31   2137.761857 -17136.648845  19891.229619   -210.934143
PG32  17307.397911 -15549.819808  12794.084722   -415.479277
PJ02 -23131.947743  30430.506353 -13196.981560     -1.109457
PJ03 -28426.428393  22156.631655  26942.744137      0.700816
PJ04 -31741.572456  27830.414949   8802.962793     94.174203
PR01  -7557.089011  -8014.449666  23013.334826     24.252691
PR02 -18857.830503   7258.545213  15658.114191    -23.177330
PR03 -18505.076533  17587.353306   -654.774281     73.667158
PR04  -8151.184128  17782.090440 -16345.392257    178.309808
PR05   6688.433005   8456.032076 -23101.630593    108.827574
PR07  18135.018682 -17831.344936   1630.061176     51.199105
PR08   7748.512020 -17823.839619  16566.571396    -69.724553
PR09  12176.033203   3232.321821  22181.556495    107.627613
PR11  -2443.627209 -24360.018592   7191.582588    -13.946000
PR12 -10462.430913 -20132.454612 -11619.901167     25.469743
PR13 -12127.409126  -5406.674844 -21799.286462    -32.691942
PR14  -6357.134924  14725.137664 -19824.678002     24.404002
PR15   2777.345342  24626.418904  -6028.154509     90.649554
PR16  10472.385128  20273.310211  11373.673886     12.050237
PR17 -14583.660366   5082.685244  20300.299814    610.336537
PR18   2286.257598  11448.177305  22687.639168     70.081258
PR19  16752.177667  12746.857531  14404.420945   -224.262565
PR20  24107.083615   5927.736268  -5743.245600    -88.831834
PR21  13129.448521  -5754.910581 -21102.708052   -378.248440
PR22  -2754.266603 -12136.696096 -22242.109008     73.744206
PR24 -24257.190858  -4684.683784   6354.174157    151.651412
PR25  15175.158000  -4465.751020 -20009.864694     56.951904
EOF
